PROBA-1                 
1 26958U 01049B   15226.75982047  .00000509  00000-0  49936-4 0  9991
2 26958  97.4771 210.5693 0076200  63.3579 297.5417 14.94219675751074
BIRD 2                  
1 26959U 01049C   15226.73035532  .00002961  00000-0  10622-3 0  9991
2 26959  97.7646 129.9654 0009503 230.9303 151.8637 15.29538834763358
CUTE-1 (CO-55)          
1 27844U 03031E   15226.75297416  .00000110  00000-0  69626-4 0  9994
2 27844  98.6960 234.4462 0010651 127.3270 337.6691 14.21833643628764
CUBESAT XI-IV (CO-57)   
1 27848U 03031J   15226.00313005  .00000087  00000-0  59634-4 0  9990
2 27848  98.7057 233.6443 0010410 136.2811 278.1422 14.21476194628562
GENESIS 1               
1 29252U 06029A   15225.76593697  .00001794  00000-0  10474-3 0  9994
2 29252  64.5084 322.0667 0051532 261.8303 228.9726 15.14533025499753
FALCONSAT-3             
1 30776U 07006E   15226.45823074  .00004760  00000-0  18759-3 0  9995
2 30776  35.4283 355.6417 0000619  75.6349 344.6993 15.25094029465191
GENESIS 2               
1 31789U 07028A   15225.78974795  .00001247  00000-0  78365-4 0  9993
2 31789  64.5062 357.5671 0042267 305.9516  53.7687 15.13822934446870
APRIZESAT 4             
1 35684U 09041D   15226.37750197  .00000237  00000-0  39132-4 0  9999
2 35684  98.0710 153.2179 0049014 104.8353   9.0586 14.78629960325698
APRIZESAT 3             
1 35686U 09041F   15226.11743459  .00000499  00000-0  60497-4 0  9994
2 35686  98.2023 189.1508 0075042  42.0731 318.6212 14.86473283327170
PROBA-2                 
1 36037U 09059B   15225.63667719  .00000046  00000-0  21996-4 0  9993
2 36037  98.2741  57.9383 0012019 247.8897 112.1023 14.52866829306320
APRIZESAT 5             
1 37792U 11044E   15226.84293547  .00000218  00000-0  39982-4 0  9992
2 37792  98.2541 342.6893 0059629  34.0895  81.4895 14.74681309214751
APRIZESAT 6             
1 37793U 11044F   15226.90713852  .00000186  00000-0  37807-4 0  9994
2 37793  98.2267 334.5122 0048400  49.9003  66.4776 14.71814941214368
TET-1                   
1 38710U 12039D   15226.14697653  .00004920  00000-0  13753-3 0  9998
2 38710  97.4778 152.1458 0003674 104.1615 256.0038 15.37163722170545
STSAT-2C                
1 39068U 13003A   15226.42268401  .00037330 -53583-6  52867-3 0  9994
2 39068  80.2375 227.7938 0547684  42.1443 322.0536 14.67457582132155
CUSAT 1                 
1 39266U 13055B   15225.79379792  .00008192  00000-0  24499-3 0  9999
2 39266  80.9940 345.8472 0705583  24.8359 338.5095 14.18728796 96124
STPSAT-3                
1 39380U 13064A   15226.85137448  .00003669  00000-0  13356-3 0  9998
2 39380  40.5035 149.1925 0007873 265.0944  94.8968 15.29257880 96611
APRIZESAT 7             
1 39416U 13066A   15226.16940863  .00000238  00000-0  35264-4 0  9999
2 39416  97.7310 290.7010 0040399 302.3379  57.3927 14.83273263 93445
APRIZESAT 8             
1 39425U 13066K   15226.12816633  .00000183  00000-0  30202-4 0  9998
2 39425  97.7271 287.9742 0051207 306.5778  53.0728 14.80580660 93294
BUGSAT-1 (TITA)         
1 40014U 14033E   15226.73951538  .00000744  00000-0  75592-4 0  9994
2 40014  97.9602 131.8560 0033941  35.3408 325.0065 14.93550961 62788
SAUDISAT 4              
1 40016U 14033G   15226.70164549  .00000153  00000-0  30227-4 0  9991
2 40016  97.9377 119.1307 0047374 293.1060  66.5160 14.74831730 62025
TABLETSAT-AURORA        
1 40017U 14033H   15226.73779991  .00000930  00000-0  98256-4 0  9997
2 40017  97.9559 130.3091 0025312  31.4161 328.8538 14.91506554 62694
APRIZESAT 9             
1 40018U 14033J   15226.70924266  .00000142  00000-0  31491-4 0  9995
2 40018  97.9309 115.4597 0070653 298.5618  60.8489 14.69543872 61702
APRIZESAT 10            
1 40019U 14033K   15226.71638416  .00000100  00000-0  26040-4 0  9994
2 40019  97.9275 113.4739 0083550 302.7617  56.5556 14.66639211 61637
AISAT                   
1 40054U 14034B   15226.82041470  .00001027  00000-0  15808-3 0  9992
2 40054  98.2153 305.4643 0014084  43.2554 316.9758 14.75617344 60500
CANX-4                  
1 40055U 14034C   15226.77871732  .00000270  00000-0  48972-4 0  9997
2 40055  98.2172 305.1823 0015418  51.2675 308.9909 14.74158549 60475
CANX-5                  
1 40056U 14034D   15226.84678484  .00000260  00000-0  47352-4 0  9995
2 40056  98.2171 305.2501 0015424  51.3265 308.9320 14.74159107 60481
TDS 1                   
1 40076U 14037H   15226.74488843  .00000262  00000-0  41236-4 0  9994
2 40076  98.3476 300.6822 0007151  75.4922 284.7081 14.80979051 59480
TIANTUO 2               
1 40144U 14053B   15226.73965131  .00002433  00000-0  85063-4 0  9995
2 40144  97.3817 303.1670 0013634 142.0283 333.2983 15.30435760 52032
